{
    "states": [
        {
            "name": "Thiruvananthapuram",
            "totalPlaces": 7,
            "places": [
                {
                    "placeName": "KappadBeach",
                    "description": "It is beautiful",
                    "imageUrl": "1.jpg"
                }, {
                    "placeName": "Lokanar Kavu",
                    "description": "It is beautiful",
                    "imageUrl": "6.jpg"
                }, {
                    "placeName": "Payyambalam Beach",
                    "description": "It is beautiful",
                    "imageUrl": "5.jpg"
                }, {
                    "placeName": "Thalassery",
                    "description": "It is beautiful",
                    "imageUrl": "2.jpg"
                }
            ]
        }, {
            "name": "Kollam",
            "totalPlaces": 2,
            "places": [
                {
                    "placeName": "check1",
                    "description": "It is beautiful",
                    "imageUrl": "3.jpg"
                }, {
                    "placeName": "check 2",
                    "description": "It is beautiful",
                    "imageUrl": "4.jpg"
                }, {
                    "placeName": "Payyambalam Beach",
                    "description": "It is beautiful",
                    "imageUrl": "5.jpg"
                }, {
                    "placeName": "Thalassery",
                    "description": "It is beautiful",
                    "imageUrl": "6.jpg"
                }
            ]
        }, {
            "name": "Alappuzha",
            "totalPlaces": 5
        }, {
            "name": "Pathanamthitta",
            "totalPlaces": 12
        }, {
            "name": "Kottayam",
            "totalPlaces": 12
        }
    ]
}

